{
  "type": "FeatureCollection",
  "features": [
    {
      "type": "Feature",
      "properties": {
        "norad_id": 40128,
        "name": "GSAT0201 (GALILEO 5)",
        "group": "gnss",
        "lat": -33.384962041460135,
        "lon": 135.44456658554688,
        "alt_km": 18432.914758160845,
        "timestamp": "2025-12-23T11:34:48.409889+00:00",
        "meta_object_name": "GSAT0201 (GALILEO 5)",
        "meta_object_id": "2014-050A",
        "meta_epoch": "2025-12-22T02:10:25.077792",
        "meta_mean_motion": 1.85519674,
        "meta_eccentricity": 0.16488719,
        "meta_inclination": 49.0659,
        "meta_ra_of_asc_node": 280.6824,
        "meta_arg_of_pericenter": 172.6344,
        "meta_mean_anomaly": 190.1824,
        "meta_ephemeris_type": 0,
        "meta_classification_type": "U",
        "meta_norad_cat_id": 40128,
        "meta_element_set_no": 999,
        "meta_rev_at_epoch": 7503,
        "meta_bstar": 0,
        "meta_mean_motion_dot": -3.7e-07,
        "meta_mean_motion_ddot": 0,
        "tle_line1": "1 40128U 14050A   25356.09056803 -.00000037  00000+0  00000+0 0  9996",
        "tle_line2": "2 40128  49.0659 280.6824 1648871 172.6344 190.1824  1.85519674 75038"
      },
      "geometry": {
        "type": "Point",
        "coordinates": [
          135.44456658554688,
          -33.384962041460135
        ]
      }
    },
    {
      "type": "Feature",
      "properties": {
        "norad_id": 40129,
        "name": "GSAT0202 (GALILEO 6)",
        "group": "gnss",
        "lat": 21.404678204152585,
        "lon": -60.45038141975026,
        "alt_km": 25065.20606901732,
        "timestamp": "2025-12-23T11:34:48.409899+00:00",
        "meta_object_name": "GSAT0202 (GALILEO 6)",
        "meta_object_id": "2014-050B",
        "meta_epoch": "2025-12-18T13:46:22.484640",
        "meta_mean_motion": 1.85520466,
        "meta_eccentricity": 0.16491259,
        "meta_inclination": 49.0858,
        "meta_ra_of_asc_node": 279.9095,
        "meta_arg_of_pericenter": 173.2442,
        "meta_mean_anomaly": 189.3393,
        "meta_ephemeris_type": 0,
        "meta_classification_type": "U",
        "meta_norad_cat_id": 40129,
        "meta_element_set_no": 999,
        "meta_rev_at_epoch": 7713,
        "meta_bstar": 0,
        "meta_mean_motion_dot": -5.9e-07,
        "meta_mean_motion_ddot": 0,
        "tle_line1": "1 40129U 14050B   25352.57387135 -.00000059  00000+0  00000+0 0  9995",
        "tle_line2": "2 40129  49.0858 279.9095 1649125 173.2442 189.3393  1.85520466 77135"
      },
      "geometry": {
        "type": "Point",
        "coordinates": [
          -60.45038141975026,
          21.404678204152585
        ]
      }
    },
    {
      "type": "Feature",
      "properties": {
        "norad_id": 40269,
        "name": "IRNSS-1C",
        "group": "gnss",
        "lat": -5.911267943963287,
        "lon": -11.292884287906347,
        "alt_km": 35805.71170024817,
        "timestamp": "2025-12-23T11:34:48.409909+00:00",
        "meta_object_name": "IRNSS-1C",
        "meta_object_id": "2014-061A",
        "meta_epoch": "2025-12-22T20:24:27.813024",
        "meta_mean_motion": 1.00273611,
        "meta_eccentricity": 0.0018078,
        "meta_inclination": 6.0675,
        "meta_ra_of_asc_node": 92.4189,
        "meta_arg_of_pericenter": 1.0626,
        "meta_mean_anomaly": 27.2859,
        "meta_ephemeris_type": 0,
        "meta_classification_type": "U",
        "meta_norad_cat_id": 40269,
        "meta_element_set_no": 999,
        "meta_rev_at_epoch": 4092,
        "meta_bstar": 0,
        "meta_mean_motion_dot": -1.44e-06,
        "meta_mean_motion_ddot": 0,
        "tle_line1": "1 40269U 14061A   25356.85032191 -.00000144  00000+0  00000+0 0  9991",
        "tle_line2": "2 40269   6.0675  92.4189 0018078   1.0626  27.2859  1.00273611 40928"
      },
      "geometry": {
        "type": "Point",
        "coordinates": [
          -11.292884287906347,
          -5.911267943963287
        ]
      }
    },
    {
      "type": "Feature",
      "properties": {
        "norad_id": 40294,
        "name": "GPS BIIF-8  (PRN 03)",
        "group": "gnss",
        "lat": 32.290982105059896,
        "lon": 62.115257873390675,
        "alt_km": 20036.863078340597,
        "timestamp": "2025-12-23T11:34:48.409920+00:00",
        "meta_object_name": "GPS BIIF-8  (PRN 03)",
        "meta_object_id": "2014-068A",
        "meta_epoch": "2025-12-21T10:24:33.832224",
        "meta_mean_motion": 2.00565456,
        "meta_eccentricity": 0.00608151,
        "meta_inclination": 56.8641,
        "meta_ra_of_asc_node": 37.8098,
        "meta_arg_of_pericenter": 69.0115,
        "meta_mean_anomaly": 291.7086,
        "meta_ephemeris_type": 0,
        "meta_classification_type": "U",
        "meta_norad_cat_id": 40294,
        "meta_element_set_no": 999,
        "meta_rev_at_epoch": 8164,
        "meta_bstar": 0,
        "meta_mean_motion_dot": -5.2e-07,
        "meta_mean_motion_ddot": 0,
        "tle_line1": "1 40294U 14068A   25355.43372491 -.00000052  00000+0  00000+0 0  9997",
        "tle_line2": "2 40294  56.8641  37.8098 0060815  69.0115 291.7086  2.00565456 81643"
      },
      "geometry": {
        "type": "Point",
        "coordinates": [
          62.115257873390675,
          32.290982105059896
        ]
      }
    },
    {
      "type": "Feature",
      "properties": {
        "norad_id": 40315,
        "name": "COSMOS 2501 (702K)",
        "group": "gnss",
        "lat": 52.3420174168082,
        "lon": -23.60426932410663,
        "alt_km": 19120.634173903618,
        "timestamp": "2025-12-23T11:34:48.409930+00:00",
        "meta_object_name": "COSMOS 2501 (702K)",
        "meta_object_id": "2014-075A",
        "meta_epoch": "2025-12-19T02:31:27.452640",
        "meta_mean_motion": 2.13101513,
        "meta_eccentricity": 0.0020099,
        "meta_inclination": 63.6146,
        "meta_ra_of_asc_node": 196.6046,
        "meta_arg_of_pericenter": 204.1838,
        "meta_mean_anomaly": 155.7988,
        "meta_ephemeris_type": 0,
        "meta_classification_type": "U",
        "meta_norad_cat_id": 40315,
        "meta_element_set_no": 999,
        "meta_rev_at_epoch": 8601,
        "meta_bstar": 0,
        "meta_mean_motion_dot": 1.06e-06,
        "meta_mean_motion_ddot": 0,
        "tle_line1": "1 40315U 14075A   25353.10517885  .00000106  00000+0  00000+0 0  9998",
        "tle_line2": "2 40315  63.6146 196.6046 0020099 204.1838 155.7988  2.13101513 86014"
      },
      "geometry": {
        "type": "Point",
        "coordinates": [
          -23.60426932410663,
          52.3420174168082
        ]
      }
    },
    {
      "type": "Feature",
      "properties": {
        "norad_id": 40534,
        "name": "GPS BIIF-9  (PRN 26)",
        "group": "gnss",
        "lat": -40.934122624048015,
        "lon": 170.96324656424548,
        "alt_km": 20202.544656672995,
        "timestamp": "2025-12-23T11:34:48.409940+00:00",
        "meta_object_name": "GPS BIIF-9  (PRN 26)",
        "meta_object_id": "2015-013A",
        "meta_epoch": "2025-12-22T13:27:33.794784",
        "meta_mean_motion": 2.00561992,
        "meta_eccentricity": 0.01074276,
        "meta_inclination": 53.1964,
        "meta_ra_of_asc_node": 211.4834,
        "meta_arg_of_pericenter": 38.7225,
        "meta_mean_anomaly": 322.126,
        "meta_ephemeris_type": 0,
        "meta_classification_type": "U",
        "meta_norad_cat_id": 40534,
        "meta_element_set_no": 999,
        "meta_rev_at_epoch": 7828,
        "meta_bstar": 0,
        "meta_mean_motion_dot": 7.5e-07,
        "meta_mean_motion_ddot": 0,
        "tle_line1": "1 40534U 15013A   25356.56080781  .00000075  00000+0  00000+0 0  9992",
        "tle_line2": "2 40534  53.1964 211.4834 0107427  38.7225 322.1260  2.00561992 78282"
      },
      "geometry": {
        "type": "Point",
        "coordinates": [
          170.96324656424548,
          -40.934122624048015
        ]
      }
    },
    {
      "type": "Feature",
      "properties": {
        "norad_id": 40544,
        "name": "GSAT0203 (GALILEO 7)",
        "group": "gnss",
        "lat": 24.51349584884361,
        "lon": 149.03206537748414,
        "alt_km": 23229.808292422098,
        "timestamp": "2025-12-23T11:34:48.409952+00:00",
        "meta_object_name": "GSAT0203 (GALILEO 7)",
        "meta_object_id": "2015-017A",
        "meta_epoch": "2025-12-20T21:23:15.511200",
        "meta_mean_motion": 1.70475982,
        "meta_eccentricity": 0.00064626,
        "meta_inclination": 56.8444,
        "meta_ra_of_asc_node": 346.4578,
        "meta_arg_of_pericenter": 274.4172,
        "meta_mean_anomaly": 85.5182,
        "meta_ephemeris_type": 0,
        "meta_classification_type": "U",
        "meta_norad_cat_id": 40544,
        "meta_element_set_no": 999,
        "meta_rev_at_epoch": 6616,
        "meta_bstar": 0,
        "meta_mean_motion_dot": -6.9e-07,
        "meta_mean_motion_ddot": 0,
        "tle_line1": "1 40544U 15017A   25354.89115175 -.00000069  00000+0  00000+0 0  9991",
        "tle_line2": "2 40544  56.8444 346.4578 0006462 274.4172  85.5182  1.70475982 66163"
      },
      "geometry": {
        "type": "Point",
        "coordinates": [
          149.03206537748414,
          24.51349584884361
        ]
      }
    }
  ]
}